CCSDS_OMM_VERS = 2.0
CREATION_DATE  = 
ORIGINATOR     = 

OBJECT_NAME    = YOTSUBA-KULOVER
OBJECT_ID      = 1998-067XN
CENTER_NAME    = EARTH
REF_FRAME      = TEME
TIME_SYSTEM    = UTC
MEAN_ELEMENT_THEORY = SGP/SGP4

EPOCH          = 2026-03-03T07:31:51.679776
MEAN_MOTION    = 15.77666940
ECCENTRICITY   = .0006068
INCLINATION    = 51.6214
RA_OF_ASC_NODE = 90.2937
ARG_OF_PERICENTER = 29.9333
MEAN_ANOMALY   = 330.2013

EPHEMERIS_TYPE = 0
CLASSIFICATION_TYPE = U
NORAD_CAT_ID   = 65941
ELEMENT_SET_NO = 999
REV_AT_EPOCH   = 2249
BSTAR          = .10922E-2
MEAN_MOTION_DOT = .190411E-2
MEAN_MOTION_DDOT = 0

CCSDS_OMM_VERS = 2.0
CREATION_DATE  = 
ORIGINATOR     = 

OBJECT_NAME    = BOTAN
OBJECT_ID      = 1998-067XP
CENTER_NAME    = EARTH
REF_FRAME      = TEME
TIME_SYSTEM    = UTC
MEAN_ELEMENT_THEORY = SGP/SGP4

EPOCH          = 2026-03-03T07:18:10.974816
MEAN_MOTION    = 16.26065138
ECCENTRICITY   = .0002926
INCLINATION    = 51.6040
RA_OF_ASC_NODE = 82.5602
ARG_OF_PERICENTER = 46.9281
MEAN_ANOMALY   = 313.1984

EPHEMERIS_TYPE = 0
CLASSIFICATION_TYPE = U
NORAD_CAT_ID   = 65942
ELEMENT_SET_NO = 999
REV_AT_EPOCH   = 2259
BSTAR          = .14503E-2
MEAN_MOTION_DOT = .4760636E-1
MEAN_MOTION_DDOT = .12041E-4

CCSDS_OMM_VERS = 2.0
CREATION_DATE  = 
ORIGINATOR     = 

OBJECT_NAME    = E-KAGAKU-1
OBJECT_ID      = 1998-067XQ
CENTER_NAME    = EARTH
REF_FRAME      = TEME
TIME_SYSTEM    = UTC
MEAN_ELEMENT_THEORY = SGP/SGP4

EPOCH          = 2026-03-03T07:36:30.915936
MEAN_MOTION    = 15.77409964
ECCENTRICITY   = .0006308
INCLINATION    = 51.6236
RA_OF_ASC_NODE = 90.3309
ARG_OF_PERICENTER = 37.0943
MEAN_ANOMALY   = 323.0492

EPHEMERIS_TYPE = 0
CLASSIFICATION_TYPE = U
NORAD_CAT_ID   = 65943
ELEMENT_SET_NO = 999
REV_AT_EPOCH   = 2249
BSTAR          = .10654E-2
MEAN_MOTION_DOT = .18348E-2
MEAN_MOTION_DDOT = 0

CCSDS_OMM_VERS = 2.0
CREATION_DATE  = 
ORIGINATOR     = 

OBJECT_NAME    = HRC MONOBLOCK CAMERA
OBJECT_ID      = 1998-067XR
CENTER_NAME    = EARTH
REF_FRAME      = TEME
TIME_SYSTEM    = UTC
MEAN_ELEMENT_THEORY = SGP/SGP4

EPOCH          = 2026-03-03T10:18:51.885216
MEAN_MOTION    = 15.61422714
ECCENTRICITY   = .0003333
INCLINATION    = 51.6272
RA_OF_ASC_NODE = 97.1087
ARG_OF_PERICENTER = 64.5025
MEAN_ANOMALY   = 295.6313

EPHEMERIS_TYPE = 0
CLASSIFICATION_TYPE = U
NORAD_CAT_ID   = 66052
ELEMENT_SET_NO = 999
REV_AT_EPOCH   = 2141
BSTAR          = .63041E-3
MEAN_MOTION_DOT = .5474E-3
MEAN_MOTION_DDOT = 0

CCSDS_OMM_VERS = 2.0
CREATION_DATE  = 
ORIGINATOR     = 

OBJECT_NAME    = HTV-X1
OBJECT_ID      = 2025-241A
CENTER_NAME    = EARTH
REF_FRAME      = TEME
TIME_SYSTEM    = UTC
MEAN_ELEMENT_THEORY = SGP/SGP4

EPOCH          = 2026-03-03T10:43:29.273376
MEAN_MOTION    = 15.48418100
ECCENTRICITY   = .0008211
INCLINATION    = 51.6317
RA_OF_ASC_NODE = 103.2200
ARG_OF_PERICENTER = 152.5429
MEAN_ANOMALY   = 207.5995

EPHEMERIS_TYPE = 0
CLASSIFICATION_TYPE = U
NORAD_CAT_ID   = 66174
ELEMENT_SET_NO = 999
REV_AT_EPOCH   = 55508
BSTAR          = .1818E-3
MEAN_MOTION_DOT = .9386E-4
MEAN_MOTION_DDOT = 0

CCSDS_OMM_VERS = 2.0
CREATION_DATE  = 
ORIGINATOR     = 

OBJECT_NAME    = SZ-21 MODULE
OBJECT_ID      = 2025-246C
CENTER_NAME    = EARTH
REF_FRAME      = TEME
TIME_SYSTEM    = UTC
MEAN_ELEMENT_THEORY = SGP/SGP4

EPOCH          = 2026-03-03T12:20:44.084832
MEAN_MOTION    = 15.67986981
ECCENTRICITY   = .0001453
INCLINATION    = 41.4734
RA_OF_ASC_NODE = 241.3606
ARG_OF_PERICENTER = 287.8659
MEAN_ANOMALY   = 72.2024

EPHEMERIS_TYPE = 0
CLASSIFICATION_TYPE = U
NORAD_CAT_ID   = 66515
ELEMENT_SET_NO = 999
REV_AT_EPOCH   = 1710
BSTAR          = .35642E-3
MEAN_MOTION_DOT = .40507E-3
MEAN_MOTION_DDOT = 0

CCSDS_OMM_VERS = 2.0
CREATION_DATE  = 
ORIGINATOR     = 

OBJECT_NAME    = SHENZHOU-22
OBJECT_ID      = 2025-272A
CENTER_NAME    = EARTH
REF_FRAME      = TEME
TIME_SYSTEM    = UTC
MEAN_ELEMENT_THEORY = SGP/SGP4

EPOCH          = 2026-03-02T19:17:14.095104
MEAN_MOTION    = 15.60315912
ECCENTRICITY   = .00066169
INCLINATION    = 41.4651
RA_OF_ASC_NODE = 250.0496
ARG_OF_PERICENTER = 230.1207
MEAN_ANOMALY   = 129.9050

EPHEMERIS_TYPE = 0
CLASSIFICATION_TYPE = U
NORAD_CAT_ID   = 66645
ELEMENT_SET_NO = 999
REV_AT_EPOCH   = 26752
BSTAR          = .21016754E-3
MEAN_MOTION_DOT = .17409E-3
MEAN_MOTION_DDOT = 0

CCSDS_OMM_VERS = 2.0
CREATION_DATE  = 
ORIGINATOR     = 

OBJECT_NAME    = SOYUZ-MS 28
OBJECT_ID      = 2025-275A
CENTER_NAME    = EARTH
REF_FRAME      = TEME
TIME_SYSTEM    = UTC
MEAN_ELEMENT_THEORY = SGP/SGP4

EPOCH          = 2026-03-03T10:43:29.273376
MEAN_MOTION    = 15.48418100
ECCENTRICITY   = .0008211
INCLINATION    = 51.6317
RA_OF_ASC_NODE = 103.2200
ARG_OF_PERICENTER = 152.5429
MEAN_ANOMALY   = 207.5995

EPHEMERIS_TYPE = 0
CLASSIFICATION_TYPE = U
NORAD_CAT_ID   = 66664
ELEMENT_SET_NO = 999
REV_AT_EPOCH   = 55513
BSTAR          = .1818E-3
MEAN_MOTION_DOT = .9386E-4
MEAN_MOTION_DDOT = 0

CCSDS_OMM_VERS = 2.0
CREATION_DATE  = 
ORIGINATOR     = 

OBJECT_NAME    = DUPLEX
OBJECT_ID      = 1998-067XS
CENTER_NAME    = EARTH
REF_FRAME      = TEME
TIME_SYSTEM    = UTC
MEAN_ELEMENT_THEORY = SGP/SGP4

EPOCH          = 2026-03-03T08:33:00.238464
MEAN_MOTION    = 15.55742662
ECCENTRICITY   = .0002038
INCLINATION    = 51.6288
RA_OF_ASC_NODE = 101.1190
ARG_OF_PERICENTER = 89.0398
MEAN_ANOMALY   = 271.0826

EPHEMERIS_TYPE = 0
CLASSIFICATION_TYPE = U
NORAD_CAT_ID   = 66906
ELEMENT_SET_NO = 999
REV_AT_EPOCH   = 1414
BSTAR          = .47371E-3
MEAN_MOTION_DOT = .32923E-3
MEAN_MOTION_DDOT = 0

CCSDS_OMM_VERS = 2.0
CREATION_DATE  = 
ORIGINATOR     = 

OBJECT_NAME    = ISS OBJECT XT
OBJECT_ID      = 1998-067XT
CENTER_NAME    = EARTH
REF_FRAME      = TEME
TIME_SYSTEM    = UTC
MEAN_ELEMENT_THEORY = SGP/SGP4

EPOCH          = 2026-03-03T08:06:02.892672
MEAN_MOTION    = 15.67089753
ECCENTRICITY   = .0004568
INCLINATION    = 51.6251
RA_OF_ASC_NODE = 97.9840
ARG_OF_PERICENTER = 38.4231
MEAN_ANOMALY   = 321.7090

EPHEMERIS_TYPE = 0
CLASSIFICATION_TYPE = U
NORAD_CAT_ID   = 66907
ELEMENT_SET_NO = 999
REV_AT_EPOCH   = 1418
BSTAR          = .12825E-2
MEAN_MOTION_DOT = .141674E-2
MEAN_MOTION_DDOT = 0

CCSDS_OMM_VERS = 2.0
CREATION_DATE  = 
ORIGINATOR     = 

OBJECT_NAME    = ISS OBJECT XU
OBJECT_ID      = 1998-067XU
CENTER_NAME    = EARTH
REF_FRAME      = TEME
TIME_SYSTEM    = UTC
MEAN_ELEMENT_THEORY = SGP/SGP4

EPOCH          = 2026-03-03T11:07:42.324384
MEAN_MOTION    = 15.67218012
ECCENTRICITY   = .0004672
INCLINATION    = 51.6245
RA_OF_ASC_NODE = 97.3227
ARG_OF_PERICENTER = 43.1438
MEAN_ANOMALY   = 316.9924

EPHEMERIS_TYPE = 0
CLASSIFICATION_TYPE = U
NORAD_CAT_ID   = 66908
ELEMENT_SET_NO = 999
REV_AT_EPOCH   = 1420
BSTAR          = .1343E-2
MEAN_MOTION_DOT = .149295E-2
MEAN_MOTION_DDOT = 0

CCSDS_OMM_VERS = 2.0
CREATION_DATE  = 
ORIGINATOR     = 

OBJECT_NAME    = SILVERSAT
OBJECT_ID      = 1998-067XV
CENTER_NAME    = EARTH
REF_FRAME      = TEME
TIME_SYSTEM    = UTC
MEAN_ELEMENT_THEORY = SGP/SGP4

EPOCH          = 2026-03-03T08:21:06.398208
MEAN_MOTION    = 15.69574615
ECCENTRICITY   = .0005411
INCLINATION    = 51.6247
RA_OF_ASC_NODE = 97.2997
ARG_OF_PERICENTER = 39.2869
MEAN_ANOMALY   = 320.8520

EPHEMERIS_TYPE = 0
CLASSIFICATION_TYPE = U
NORAD_CAT_ID   = 66909
ELEMENT_SET_NO = 999
REV_AT_EPOCH   = 1419
BSTAR          = .14568E-2
MEAN_MOTION_DOT = .179133E-2
MEAN_MOTION_DDOT = 0

